{"fetched_at":"2026-04-05T02:16:02Z","count":17045,"tles":[{"name":"2026-023G","line1":"1 67680U 26023G   26066.61460450  .00020409  00000+0  85815-3 0  9990","line2":"2 67680  96.6251 142.2753 0023713 125.2834 235.0628 15.23161301  4523","category":"Other"},{"name":"2026-023H","line1":"1 67681U 26023H   26066.61487353  .00015796  00000+0  66683-3 0  9997","line2":"2 67681  96.6396 142.3121 0023840 124.6868 235.6622 15.23074036  4523","category":"Other"},{"name":"2026-023J","line1":"1 67682U 26023J   26066.41642484  .00018953  00000+0  79674-3 0  9996","line2":"2 67682  96.6350 142.1405 0023901 122.1388 238.2175 15.23178803  4490","category":"Other"},{"name":"2026-023B","line1":"1 67675U 26023B   26066.61772536  .00016700  00000+0  70952-3 0  9990","line2":"2 67675  96.6355 139.8052 0019381 139.2192 221.0502 15.22936095  4541","category":"Other"},{"name":"2026-023C","line1":"1 67676U 26023C   26066.61617069  .00017146  00000+0  72551-3 0  9992","line2":"2 67676  96.6390 139.8292 0020368 129.6229 230.6812 15.23050812  4701","category":"Other"},{"name":"2026-023D","line1":"1 67677U 26023D   26066.61904777  .00016448  00000+0  69998-3 0  9993","line2":"2 67677  96.6420 139.8183 0020619 134.4017 225.8914 15.22858250  4534","category":"Other"},{"name":"2026-023E","line1":"1 67678U 26023E   26066.61663830  .00019200  00000+0  81209-3 0  9994","line2":"2 67678  96.6314 139.7953 0020355 133.9192 226.3732 15.23043338  4534","category":"Other"},{"name":"2026-023F","line1":"1 67679U 26023F   26066.61382073  .00017264  00000+0  72651-3 0  9991","line2":"2 67679  96.6323 142.2961 0022227 128.7157 231.6074 15.23196784  4527","category":"Other"}]}