CCSDS_OMM_VERS = 2.0
CREATION_DATE  = 
ORIGINATOR     = 

OBJECT_NAME    = 2026-023B
OBJECT_ID      = 2026-023B
CENTER_NAME    = EARTH
REF_FRAME      = TEME
TIME_SYSTEM    = UTC
MEAN_ELEMENT_THEORY = SGP/SGP4

EPOCH          = 2026-03-07T14:49:31.471104
MEAN_MOTION    = 15.22936095
ECCENTRICITY   = .00193812
INCLINATION    = 96.6355
RA_OF_ASC_NODE = 139.8052
ARG_OF_PERICENTER = 139.2192
MEAN_ANOMALY   = 221.0502

EPHEMERIS_TYPE = 0
CLASSIFICATION_TYPE = U
NORAD_CAT_ID   = 67675
ELEMENT_SET_NO = 999
REV_AT_EPOCH   = 454
BSTAR          = .70951743E-3
MEAN_MOTION_DOT = .167E-3
MEAN_MOTION_DDOT = 0

CCSDS_OMM_VERS = 2.0
CREATION_DATE  = 
ORIGINATOR     = 

OBJECT_NAME    = 2026-023C
OBJECT_ID      = 2026-023C
CENTER_NAME    = EARTH
REF_FRAME      = TEME
TIME_SYSTEM    = UTC
MEAN_ELEMENT_THEORY = SGP/SGP4

EPOCH          = 2026-03-07T14:47:17.147616
MEAN_MOTION    = 15.23050812
ECCENTRICITY   = .00203685
INCLINATION    = 96.6390
RA_OF_ASC_NODE = 139.8292
ARG_OF_PERICENTER = 129.6229
MEAN_ANOMALY   = 230.6812

EPHEMERIS_TYPE = 0
CLASSIFICATION_TYPE = U
NORAD_CAT_ID   = 67676
ELEMENT_SET_NO = 999
REV_AT_EPOCH   = 470
BSTAR          = .72550667E-3
MEAN_MOTION_DOT = .17146E-3
MEAN_MOTION_DDOT = 0

CCSDS_OMM_VERS = 2.0
CREATION_DATE  = 
ORIGINATOR     = 

OBJECT_NAME    = 2026-023D
OBJECT_ID      = 2026-023D
CENTER_NAME    = EARTH
REF_FRAME      = TEME
TIME_SYSTEM    = UTC
MEAN_ELEMENT_THEORY = SGP/SGP4

EPOCH          = 2026-03-07T14:51:25.727328
MEAN_MOTION    = 15.22858250
ECCENTRICITY   = .00206192
INCLINATION    = 96.6420
RA_OF_ASC_NODE = 139.8183
ARG_OF_PERICENTER = 134.4017
MEAN_ANOMALY   = 225.8914

EPHEMERIS_TYPE = 0
CLASSIFICATION_TYPE = U
NORAD_CAT_ID   = 67677
ELEMENT_SET_NO = 999
REV_AT_EPOCH   = 453
BSTAR          = .69997949E-3
MEAN_MOTION_DOT = .16448E-3
MEAN_MOTION_DDOT = 0

CCSDS_OMM_VERS = 2.0
CREATION_DATE  = 
ORIGINATOR     = 

OBJECT_NAME    = 2026-023E
OBJECT_ID      = 2026-023E
CENTER_NAME    = EARTH
REF_FRAME      = TEME
TIME_SYSTEM    = UTC
MEAN_ELEMENT_THEORY = SGP/SGP4

EPOCH          = 2026-03-07T14:47:57.549120
MEAN_MOTION    = 15.23043338
ECCENTRICITY   = .00203557
INCLINATION    = 96.6314
RA_OF_ASC_NODE = 139.7953
ARG_OF_PERICENTER = 133.9192
MEAN_ANOMALY   = 226.3732

EPHEMERIS_TYPE = 0
CLASSIFICATION_TYPE = U
NORAD_CAT_ID   = 67678
ELEMENT_SET_NO = 999
REV_AT_EPOCH   = 453
BSTAR          = .81209402E-3
MEAN_MOTION_DOT = .192E-3
MEAN_MOTION_DDOT = 0

CCSDS_OMM_VERS = 2.0
CREATION_DATE  = 
ORIGINATOR     = 

OBJECT_NAME    = 2026-023F
OBJECT_ID      = 2026-023F
CENTER_NAME    = EARTH
REF_FRAME      = TEME
TIME_SYSTEM    = UTC
MEAN_ELEMENT_THEORY = SGP/SGP4

EPOCH          = 2026-03-07T14:43:54.111072
MEAN_MOTION    = 15.23196784
ECCENTRICITY   = .00222271
INCLINATION    = 96.6323
RA_OF_ASC_NODE = 142.2961
ARG_OF_PERICENTER = 128.7157
MEAN_ANOMALY   = 231.6074

EPHEMERIS_TYPE = 0
CLASSIFICATION_TYPE = U
NORAD_CAT_ID   = 67679
ELEMENT_SET_NO = 999
REV_AT_EPOCH   = 452
BSTAR          = .72651222E-3
MEAN_MOTION_DOT = .17264E-3
MEAN_MOTION_DDOT = 0

CCSDS_OMM_VERS = 2.0
CREATION_DATE  = 
ORIGINATOR     = 

OBJECT_NAME    = 2026-023G
OBJECT_ID      = 2026-023G
CENTER_NAME    = EARTH
REF_FRAME      = TEME
TIME_SYSTEM    = UTC
MEAN_ELEMENT_THEORY = SGP/SGP4

EPOCH          = 2026-03-07T14:45:01.828800
MEAN_MOTION    = 15.23161301
ECCENTRICITY   = .00237136
INCLINATION    = 96.6251
RA_OF_ASC_NODE = 142.2753
ARG_OF_PERICENTER = 125.2834
MEAN_ANOMALY   = 235.0628

EPHEMERIS_TYPE = 0
CLASSIFICATION_TYPE = U
NORAD_CAT_ID   = 67680
ELEMENT_SET_NO = 999
REV_AT_EPOCH   = 452
BSTAR          = .85815271E-3
MEAN_MOTION_DOT = .20409E-3
MEAN_MOTION_DDOT = 0

CCSDS_OMM_VERS = 2.0
CREATION_DATE  = 
ORIGINATOR     = 

OBJECT_NAME    = 2026-023H
OBJECT_ID      = 2026-023H
CENTER_NAME    = EARTH
REF_FRAME      = TEME
TIME_SYSTEM    = UTC
MEAN_ELEMENT_THEORY = SGP/SGP4

EPOCH          = 2026-03-07T14:45:25.072992
MEAN_MOTION    = 15.23074036
ECCENTRICITY   = .00238405
INCLINATION    = 96.6396
RA_OF_ASC_NODE = 142.3121
ARG_OF_PERICENTER = 124.6868
MEAN_ANOMALY   = 235.6622

EPHEMERIS_TYPE = 0
CLASSIFICATION_TYPE = U
NORAD_CAT_ID   = 67681
ELEMENT_SET_NO = 999
REV_AT_EPOCH   = 452
BSTAR          = .66682554E-3
MEAN_MOTION_DOT = .15796E-3
MEAN_MOTION_DDOT = 0

CCSDS_OMM_VERS = 2.0
CREATION_DATE  = 
ORIGINATOR     = 

OBJECT_NAME    = 2026-023J
OBJECT_ID      = 2026-023J
CENTER_NAME    = EARTH
REF_FRAME      = TEME
TIME_SYSTEM    = UTC
MEAN_ELEMENT_THEORY = SGP/SGP4

EPOCH          = 2026-03-07T09:59:39.106176
MEAN_MOTION    = 15.23178803
ECCENTRICITY   = .00239011
INCLINATION    = 96.6350
RA_OF_ASC_NODE = 142.1405
ARG_OF_PERICENTER = 122.1388
MEAN_ANOMALY   = 238.2175

EPHEMERIS_TYPE = 0
CLASSIFICATION_TYPE = U
NORAD_CAT_ID   = 67682
ELEMENT_SET_NO = 999
REV_AT_EPOCH   = 449
BSTAR          = .7967358E-3
MEAN_MOTION_DOT = .18953E-3
MEAN_MOTION_DDOT = 0

